[{"OBJECT_NAME":"STARLINK-5857","OBJECT_ID":"2023-037AJ","EPOCH":"2026-03-09T22:00:01.999584","MEAN_MOTION":14.98333401,"ECCENTRICITY":0.00026408,"INCLINATION":70.0002,"RA_OF_ASC_NODE":283.7999,"ARG_OF_PERICENTER":273.5766,"MEAN_ANOMALY":179.157,"EPHEMERIS_TYPE":0,"CLASSIFICATION_TYPE":"U","NORAD_CAT_ID":55946,"ELEMENT_SET_NO":999,"REV_AT_EPOCH":571,"BSTAR":0.0014450745,"MEAN_MOTION_DOT":0.00017193,"MEAN_MOTION_DDOT":0},{"OBJECT_NAME":"CZ-4B R\/B","OBJECT_ID":"2024-208C","EPOCH":"2026-03-09T16:49:23.143584","MEAN_MOTION":15.26980605,"ECCENTRICITY":0.01307988,"INCLINATION":97.9574,"RA_OF_ASC_NODE":113.1946,"ARG_OF_PERICENTER":150.913,"MEAN_ANOMALY":209.9477,"EPHEMERIS_TYPE":0,"CLASSIFICATION_TYPE":"U","NORAD_CAT_ID":61938,"ELEMENT_SET_NO":999,"REV_AT_EPOCH":7308,"BSTAR":0.00035146236,"MEAN_MOTION_DOT":0.000119,"MEAN_MOTION_DDOT":0}]
